NORAD_CAT_ID,OBJECT_NAME,OBJECT_TYPE,EPOCH,MEAN_MOTION,ECCENTRICITY,INCLINATION,RA_OF_ASC_NODE,ARG_OF_PERICENTER,MEAN_ANOMALY,BSTAR,MEAN_MOTION_DOT,MEAN_MOTION_DDOT,TLE_LINE0,TLE_LINE1,TLE_LINE2,SEMIMAJOR_AXIS,PERIOD,APOGEE,PERIGEE,DECAYED
56769.0,STARLINK-5978,PAYLOAD,2024-01-28 14:08:20,14.98330027,0.0002795,70.0004,148.6776,266.8774,93.2065,1.0014e-05,2.7e-07,0.0,0 STARLINK-5978,1 56769U 23078C   24028.58913159  .00000027  00000-0  10014-4 0  9999,2 56769  70.0004 148.6776 0002795 266.8774  93.2065 14.98330027 36683,6950.193,96.107,574.0,570.115,0.0
56769.0,STARLINK-5978,PAYLOAD,2024-01-28 17:20:37,14.9832951,0.0002949,70.0003,148.341,269.4538,90.6283,-1.0575e-06,-1.06e-06,0.0,0 STARLINK-5978,1 56769U 23078C   24028.72265227 -.00000106  00000-0 -10575-5 0  9994,2 56769  70.0003 148.3410 0002949 269.4538  90.6283 14.98329510 36961,6950.194,96.107,574.109,570.01,0.0
56769.0,STARLINK-5978,PAYLOAD,2024-01-29 12:34:13,14.98329979,0.0002906,70.0005,146.3214,266.6044,93.4782,5.018e-06,-3.3e-07,0.0,0 STARLINK-5978,1 56769U 23078C   24029.52377163 -.00000033  00000-0  50180-5 0  9990,2 56769  70.0005 146.3214 0002906 266.6044  93.4782 14.98329979 36826,6950.193,96.107,574.078,570.038,0.0
56769.0,STARLINK-5978,PAYLOAD,2024-01-30 11:00:06,14.98329567,0.0002879,70.0006,143.965,265.5815,94.5015,4.2007e-05,4.08e-06,0.0,0 STARLINK-5978,1 56769U 23078C   24030.45841028  .00000408  00000-0  42007-4 0  9993,2 56769  70.0006 143.9650 0002879 265.5815  94.5015 14.98329567 37226,6950.194,96.107,574.06,570.058,0.0
56769.0,STARLINK-5978,PAYLOAD,2024-01-30 14:12:22,14.98329858,0.0002846,70.0007,143.6285,264.5484,95.5351,4.6419e-05,4.61e-06,0.0,0 STARLINK-5978,1 56769U 23078C   24030.59193001  .00000461  00000-0  46419-4 0  9999,2 56769  70.0007 143.6285 0002846 264.5484  95.5351 14.98329858 36982,6950.193,96.107,574.036,570.08,0.0
56769.0,STARLINK-5978,PAYLOAD,2024-01-30 17:24:38,14.98330624,0.000289,70.0006,143.2917,266.6278,93.4551,5.02e-05,5.06e-06,0.0,0 STARLINK-5978,1 56769U 23078C   24030.72544949  .00000506  00000-0  50200-4 0  9998,2 56769  70.0006 143.2917 0002890 266.6278  93.4551 14.98330624 37008,6950.191,96.107,574.065,570.047,0.0
56769.0,STARLINK-5978,PAYLOAD,2024-01-31 11:02:07,14.98331738,0.0002886,70.0006,141.4403,266.3143,93.7686,2.3886e-05,1.92e-06,0.0,0 STARLINK-5978,1 56769U 23078C   24031.45980900  .00000192  00000-0  23886-4 0  9991,2 56769  70.0006 141.4403 0002886 266.3143  93.7686 14.98331738 37370,6950.188,96.107,574.058,570.047,0.0
56769.0,STARLINK-5978,PAYLOAD,2024-01-31 17:26:39,14.9833073,0.0002936,70.0005,140.767,267.927,92.1553,1.3022e-05,6.2e-07,0.0,0 STARLINK-5978,1 56769U 23078C   24031.72684980  .00000062  00000-0  13022-4 0  9997,2 56769  70.0005 140.7670 0002936 267.9270  92.1553 14.98330730 37154,6950.191,96.107,574.096,570.015,0.0
56769.0,STARLINK-5978,PAYLOAD,2024-02-01 11:04:08,14.9832934,0.000292,70.0006,138.9155,268.4857,91.5968,2.6362e-07,-9e-07,0.0,0 STARLINK-5978,1 56769U 23078C   24032.46121075 -.00000090  00000-0  26362-6 0  9995,2 56769  70.0006 138.9155 0002920 268.4857  91.5968 14.98329340 37521,6950.195,96.107,574.089,570.03,0.0
56769.0,STARLINK-5978,PAYLOAD,2024-02-01 14:16:24,14.98328203,0.0002969,70.0005,138.5787,269.9756,90.1063,-1.4332e-05,-2.64e-06,0.0,0 STARLINK-5978,1 56769U 23078C   24032.59473209 -.00000264  00000-0 -14332-4 0  9994,2 56769  70.0005 138.5787 0002969 269.9756  90.1063 14.98328203 37285,6950.198,96.107,574.127,570.0,0.0
56769.0,STARLINK-5978,PAYLOAD,2024-02-02 11:06:09,14.9833169,0.0003022,70.0004,136.3906,269.7376,90.3437,3.0961e-05,2.76e-06,0.0,0 STARLINK-5978,1 56769U 23078C   24033.46260804  .00000276  00000-0  30961-4 0  9993,2 56769  70.0004 136.3906 0003022 269.7376  90.3437 14.98331690 37674,6950.188,96.107,574.153,569.952,0.0
56769.0,STARLINK-5978,PAYLOAD,2024-02-02 14:18:25,14.9833183,0.0003019,70.0005,136.0541,269.6427,90.4386,3.1977e-05,2.89e-06,0.0,0 STARLINK-5978,1 56769U 23078C   24033.59612782  .00000289  00000-0  31977-4 0  9995,2 56769  70.0005 136.0541 0003019 269.6427  90.4386 14.98331830 37433,6950.187,96.107,574.15,569.954,0.0
56769.0,STARLINK-5978,PAYLOAD,2024-02-02 15:54:33,14.98331595,0.000303,70.0004,135.8856,270.4441,89.6371,2.8695e-05,2.49e-06,0.0,0 STARLINK-5978,1 56769U 23078C   24033.66288805  .00000249  00000-0  28695-4 0  9997,2 56769  70.0004 135.8856 0003030 270.4441  89.6371 14.98331595 37440,6950.188,96.107,574.159,569.947,0.0
56769.0,STARLINK-5978,PAYLOAD,2024-02-03 11:08:10,14.98329545,0.0003043,70.0005,133.8662,268.2039,91.8771,3.486e-05,3.23e-06,0.0,0 STARLINK-5978,1 56769U 23078C   24034.46400858  .00000323  00000-0  34860-4 0  9994,2 56769  70.0005 133.8662 0003043 268.2039  91.8771 14.98329545 37829,6950.194,96.107,574.174,569.944,0.0
56769.0,STARLINK-5978,PAYLOAD,2024-02-03 12:44:18,14.98329457,0.0003042,70.0005,133.6979,268.124,91.9571,3.3401e-05,3.06e-06,0.0,0 STARLINK-5978,1 56769U 23078C   24034.53076869  .00000306  00000-0  33401-4 0  9994,2 56769  70.0005 133.6979 0003042 268.1240  91.9571 14.98329457 37573,6950.195,96.107,574.174,569.945,0.0
56769.0,STARLINK-5978,PAYLOAD,2024-02-03 15:56:34,14.98329608,0.0003038,70.0005,133.3612,268.1165,91.9646,3.3612e-05,3.08e-06,0.0,0 STARLINK-5978,1 56769U 23078C   24034.66428858  .00000308  00000-0  33612-4 0  9993,2 56769  70.0005 133.3612 0003038 268.1165  91.9646 14.98329608 37598,6950.194,96.107,574.171,569.948,0.0
56769.0,STARLINK-5978,PAYLOAD,2024-02-04 11:10:11,14.98330411,0.0003022,70.0005,131.3415,267.4956,92.5857,-4.9733e-06,-1.52e-06,0.0,0 STARLINK-5978,1 56769U 23078C   24035.46540883 -.00000152  00000-0 -49733-5 0  9996,2 56769  70.0005 131.3415 0003022 267.4956  92.5857 14.98330411 37977,6950.192,96.107,574.157,569.956,0.0
56769.0,STARLINK-5978,PAYLOAD,2024-02-04 14:22:27,14.98330408,0.0003016,70.0005,131.005,267.4708,92.6106,-4.504e-06,-1.47e-06,0.0,0 STARLINK-5978,1 56769U 23078C   24035.59892876 -.00000147  00000-0 -45040-5 0  9993,2 56769  70.0005 131.0050 0003016 267.4708  92.6106 14.98330408 37735,6950.192,96.107,574.153,569.96,0.0
56769.0,STARLINK-5978,PAYLOAD,2024-02-04 15:58:35,14.983301,0.0003024,70.0005,130.8365,267.6813,92.4,-7.9626e-06,-1.88e-06,0.0,0 STARLINK-5978,1 56769U 23078C   24035.66568903 -.00000188  00000-0 -79626-5 0  9994,2 56769  70.0005 130.8365 0003024 267.6813  92.4000 14.98330100 37740,6950.193,96.107,574.159,569.956,0.0
56769.0,STARLINK-5978,PAYLOAD,2024-02-05 12:48:20,14.98331123,0.0003105,70.0003,128.6484,269.6409,90.4394,2.4715e-05,2.02e-06,0.0,0 STARLINK-5978,1 56769U 23078C   24036.53356708  .00000202  00000-0  24715-4 0  9992,2 56769  70.0003 128.6484 0003105 269.6409  90.4394 14.98331123 38132,6950.189,96.107,574.212,569.896,0.0
56769.0,STARLINK-5978,PAYLOAD,2024-02-05 14:24:28,14.98331373,0.000309,70.0003,128.4801,269.6404,90.4401,2.9055e-05,2.54e-06,0.0,0 STARLINK-5978,1 56769U 23078C   24036.60032679  .00000254  00000-0  29055-4 0  9997,2 56769  70.0003 128.4801 0003090 269.6404  90.4401 14.98331373 37888,6950.189,96.107,574.201,569.906,0.0
56769.0,STARLINK-5978,PAYLOAD,2024-02-05 16:00:36,14.98331451,0.0003098,70.0003,128.3117,269.7979,90.2825,2.8884e-05,2.52e-06,0.0,0 STARLINK-5978,1 56769U 23078C   24036.66708670  .00000252  00000-0  28884-4 0  9991,2 56769  70.0003 128.3117 0003098 269.7979  90.2825 14.98331451 37899,6950.188,96.107,574.207,569.9,0.0
56769.0,STARLINK-5978,PAYLOAD,2024-02-06 14:26:28,14.98333172,0.0003097,70.0002,125.9548,271.1178,88.9626,5.9521e-05,6.17e-06,0.0,0 STARLINK-5978,1 56769U 23078C   24037.60172392  .00000617  00000-0  59521-4 0  9999,2 56769  70.0002 125.9548 0003097 271.1178  88.9626 14.98333172 38038,6950.183,96.107,574.201,569.896,0.0
56769.0,STARLINK-5978,PAYLOAD,2024-02-06 16:02:36,14.98333522,0.0003096,70.0002,125.7865,271.1114,88.969,6.2198e-05,6.49e-06,0.0,0 STARLINK-5978,1 56769U 23078C   24037.66848350  .00000649  00000-0  62198-4 0  9998,2 56769  70.0002 125.7865 0003096 271.1114  88.9690 14.98333522 38307,6950.182,96.107,574.199,569.895,0.0
56769.0,STARLINK-5978,PAYLOAD,2024-02-07 14:28:30,14.98329296,0.0003015,70.0003,123.4304,270.7369,89.3445,6.6602e-07,-8.5e-07,0.0,0 STARLINK-5978,1 56769U 23078C   24038.60312745 -.00000085  00000-0  66602-6 0  9998,2 56769  70.0003 123.4304 0003015 270.7369  89.3445 14.98329296 38181,6950.195,96.107,574.156,569.965,0.0
56769.0,STARLINK-5978,PAYLOAD,2024-02-07 16:04:38,14.98329356,0.0003017,70.0003,123.262,270.8247,89.2567,9.0612e-07,-8.2e-07,0.0,0 STARLINK-5978,1 56769U 23078C   24038.66988741 -.00000082  00000-0  90612-6 0  9994,2 56769  70.0003 123.2620 0003017 270.8247  89.2567 14.98329356 38459,6950.195,96.107,574.157,569.963,0.0
56769.0,STARLINK-5978,PAYLOAD,2024-02-08 14:30:31,14.98328009,0.0002946,70.0002,120.9055,268.1827,91.8995,-3.5656e-05,-5.18e-06,0.0,0 STARLINK-5978,1 56769U 23078C   24039.60452988 -.00000518  00000-0 -35656-4 0  9998,2 56769  70.0002 120.9055 0002946 268.1827  91.8995 14.98328009 38333,6950.199,96.107,574.112,570.017,0.0
56769.0,STARLINK-5978,PAYLOAD,2024-02-09 11:20:15,14.98331432,0.0003027,69.9999,118.7173,267.4639,92.6173,6.0888e-05,6.34e-06,0.0,0 STARLINK-5978,1 56769U 23078C   24040.47240477  .00000634  00000-0  60888-4 0  9995,2 56769  69.9999 118.7173 0003027 267.4639  92.6173 14.98331432 38729,6950.188,96.107,574.157,569.95,0.0
56769.0,STARLINK-5978,PAYLOAD,2024-02-09 14:32:31,14.9833263,0.0003028,69.9999,118.3807,267.6438,92.4374,6.9934e-05,7.42e-06,0.0,0 STARLINK-5978,1 56769U 23078C   24040.60592362  .00000742  00000-0  69934-4 0  9994,2 56769  69.9999 118.3807 0003028 267.6438  92.4374 14.98332630 38484,6950.185,96.107,574.154,569.945,0.0
56769.0,STARLINK-5978,PAYLOAD,2024-02-10 11:22:17,14.98327504,0.0002967,70.0,116.1927,265.8052,94.2768,4.128e-05,4e-06,0.0,0 STARLINK-5978,1 56769U 23078C   24041.47380790  .00000400  00000-0  41280-4 0  9995,2 56769  70.0000 116.1927 0002967 265.8052  94.2768 14.98327504 38876,6950.201,96.107,574.128,570.003,0.0
